{
"type":"FeatureCollection",
"features":[

{
"type":"Feature",
"properties":{"name":"Jammu and Kashmir"},
"geometry":{
"type":"Polygon",
"coordinates":[[[73.8,34.6],[75.5,34.3],[77.6,34.5],[78.6,33.8],[77.4,32.5],[75.2,32.2],[73.9,33.1],[73.8,34.6]]]
}
},

{
"type":"Feature",
"properties":{"name":"Himachal Pradesh"},
"geometry":{
"type":"Polygon",
"coordinates":[[[75.7,32.4],[77.5,32.2],[78.2,31.6],[77.2,30.9],[75.8,31.1],[75.4,31.9],[75.7,32.4]]]
}
},

{
"type":"Feature",
"properties":{"name":"Punjab"},
"geometry":{
"type":"Polygon",
"coordinates":[[[73.9,31.1],[75.4,31.2],[75.3,30.4],[74.0,30.2],[73.9,31.1]]]
}
},

{
"type":"Feature",
"properties":{"name":"Delhi"},
"geometry":{
"type":"Polygon",
"coordinates":[[[77.0,28.9],[77.3,28.9],[77.3,28.5],[77.0,28.5],[77.0,28.9]]]
}
},

{
"type":"Feature",
"properties":{"name":"Rajasthan"},
"geometry":{
"type":"Polygon",
"coordinates":[[[69.5,28.8],[73.8,30.2],[75.7,28.9],[74.2,25.4],[71.3,24.2],[69.6,26.1],[69.5,28.8]]]
}
},

{
"type":"Feature",
"properties":{"name":"Gujarat"},
"geometry":{
"type":"Polygon",
"coordinates":[[[68.0,23.6],[71.7,24.4],[72.4,22.8],[70.7,21.3],[69.0,21.8],[68.0,23.6]]]
}
},

{
"type":"Feature",
"properties":{"name":"Maharashtra"},
"geometry":{
"type":"Polygon",
"coordinates":[[[72.6,21.7],[75.6,22.4],[78.1,21.1],[76.8,18.2],[73.5,17.8],[72.4,19.3],[72.6,21.7]]]
}
},

{
"type":"Feature",
"properties":{"name":"Karnataka"},
"geometry":{
"type":"Polygon",
"coordinates":[[[74.0,16.7],[77.8,17.5],[77.2,14.4],[75.4,12.9],[74.0,14.5],[74.0,16.7]]]
}
},

{
"type":"Feature",
"properties":{"name":"Tamil Nadu"},
"geometry":{
"type":"Polygon",
"coordinates":[[[77.2,12.9],[80.3,13.2],[80.1,10.1],[77.5,9.6],[76.7,11.4],[77.2,12.9]]]
}
},

{
"type":"Feature",
"properties":{"name":"Kerala"},
"geometry":{
"type":"Polygon",
"coordinates":[[[75.0,12.7],[76.4,11.6],[76.0,8.5],[74.9,9.2],[75.0,12.7]]]
}
},

{
"type":"Feature",
"properties":{"name":"West Bengal"},
"geometry":{
"type":"Polygon",
"coordinates":[[[86.1,25.5],[88.4,26.0],[89.5,24.6],[88.6,21.9],[86.9,22.5],[86.1,25.5]]]
}
},

{
"type":"Feature",
"properties":{"name":"Assam"},
"geometry":{
"type":"Polygon",
"coordinates":[[[90.0,26.2],[92.7,26.7],[94.1,26.0],[92.5,24.9],[90.4,25.1],[90.0,26.2]]]
}
}

]
}